start=new Date('2021-11-26T00:00:00.000Z').valueOf();
sats=[{"PERIAPSIS":"545.961","COUNTRY_CODE":"US","EPHEMERIS_TYPE":"0","APOAPSIS":"548.506","SITE":"AFETR","SEMIMAJOR_AXIS":"6925.369","CENTER_NAME":"EARTH","MEAN_ANOMALY":"294.4759","MEAN_MOTION":"15.06393480","OBJECT_TYPE":"PAYLOAD","OBJECT_ID":"2020-025L","INCLINATION":"53.0544","GP_ID":"190490948","PERIOD":"95.593","CLASSIFICATION_TYPE":"U","LAUNCH_DATE":"2020-04-22","MEAN_ELEMENT_THEORY":"SGP4","EPOCH":"2021-11-25T14:50:18.251520","NORAD_CAT_ID":"45541","TIME_SYSTEM":"UTC","OBJECT_NAME":"STARLINK-1369","REF_FRAME":"TEME","ECCENTRICITY":"0.00018370","ARG_OF_PERICENTER":"65.6421","BSTAR":"0.00002109600000","FILE":"3224126","REV_AT_EPOCH":"8919","MEAN_MOTION_DOT":"0.00000033","DECAY_DATE":null,"RCS_SIZE":"LARGE","ELEMENT_SET_NO":"999","RA_OF_ASC_NODE":"292.4992","TLE_LINE2":"2 45541  53.0544 292.4992 0001837  65.6421 294.4759 15.06393480 89198","MEAN_MOTION_DDOT":"0.0000000000000","TLE_LINE1":"1 45541U 20025L   21329.61826680  .00000033  00000-0  21096-4 0  9990"},{"INCLINATION":"53.0548","GP_ID":"190463210","PERIOD":"95.592","CLASSIFICATION_TYPE":"U","LAUNCH_DATE":"2020-04-22","MEAN_ELEMENT_THEORY":"SGP4","EPOCH":"2021-11-25T07:40:22.138752","NORAD_CAT_ID":"45542","TIME_SYSTEM":"UTC","CENTER_NAME":"EARTH","MEAN_ANOMALY":"290.8972","MEAN_MOTION":"15.06394481","OBJECT_TYPE":"PAYLOAD","OBJECT_ID":"2020-025M","APOAPSIS":"548.540","SITE":"AFETR","SEMIMAJOR_AXIS":"6925.365","PERIAPSIS":"545.921","COUNTRY_CODE":"US","EPHEMERIS_TYPE":"0","ELEMENT_SET_NO":"999","RCS_SIZE":"LARGE","RA_OF_ASC_NODE":"293.8412","TLE_LINE2":"2 45542  53.0548 293.8412 0001891  69.2219 290.8972 15.06394481 89155","MEAN_MOTION_DDOT":"0.0000000000000","TLE_LINE1":"1 45542U 20025M   21329.31970068  .00000204  00000-0  32586-4 0  9994","REV_AT_EPOCH":"8915","MEAN_MOTION_DOT":"0.00000204","DECAY_DATE":null,"ARG_OF_PERICENTER":"69.2219","BSTAR":"0.00003258600000","FILE":"3223911","OBJECT_NAME":"STARLINK-1371","REF_FRAME":"TEME","ECCENTRICITY":"0.00018910"},{"TLE_LINE1":"1 45543U 20025N   21329.62195420 -.00000378  00000-0 -64553-5 0  9994","RA_OF_ASC_NODE":"292.4760","RCS_SIZE":"LARGE","ELEMENT_SET_NO":"999","TLE_LINE2":"2 45543  53.0536 292.4760 0001691  54.0082 306.1064 15.06393213 88291","MEAN_MOTION_DDOT":"0.0000000000000","DECAY_DATE":null,"REV_AT_EPOCH":"8829","MEAN_MOTION_DOT":"-0.00000378","BSTAR":"-0.00000645530000","FILE":"3224126","ARG_OF_PERICENTER":"54.0082","ECCENTRICITY":"0.00016910","OBJECT_NAME":"STARLINK-1372","REF_FRAME":"TEME","LAUNCH_DATE":"2020-04-22","MEAN_ELEMENT_THEORY":"SGP4","EPOCH":"2021-11-25T14:55:36.842880","NORAD_CAT_ID":"45543","TIME_SYSTEM":"UTC","INCLINATION":"53.0536","PERIOD":"95.593","GP_ID":"190491451","CLASSIFICATION_TYPE":"U","OBJECT_TYPE":"PAYLOAD","OBJECT_ID":"2020-025N","CENTER_NAME":"EARTH","MEAN_ANOMALY":"306.1064","MEAN_MOTION":"15.06393213","APOAPSIS":"548.405","SEMIMAJOR_AXIS":"6925.369","SITE":"AFETR","COUNTRY_CODE":"US","EPHEMERIS_TYPE":"0","PERIAPSIS":"546.063"},{"TLE_LINE1":"1 45544U 20025P   21329.64037937 -.00000423  00000-0 -94739-5 0  9995","MEAN_MOTION_DDOT":"0.0000000000000","ELEMENT_SET_NO":"999","RCS_SIZE":"LARGE","RA_OF_ASC_NODE":"292.4069","TLE_LINE2":"2 45544  53.0548 292.4069 0001852  70.4929 289.6260 15.06393759 89208","DECAY_DATE":null,"MEAN_MOTION_DOT":"-0.00000423","REV_AT_EPOCH":"8920","FILE":"3224126","BSTAR":"-0.00000947390000","ARG_OF_PERICENTER":"70.4929","ECCENTRICITY":"0.00018520","REF_FRAME":"TEME","OBJECT_NAME":"STARLINK-1373","NORAD_CAT_ID":"45544","TIME_SYSTEM":"UTC","MEAN_ELEMENT_THEORY":"SGP4","LAUNCH_DATE":"2020-04-22","EPOCH":"2021-11-25T15:22:08.777568","CLASSIFICATION_TYPE":"U","INCLINATION":"53.0548","PERIOD":"95.593","GP_ID":"190491702","OBJECT_ID":"2020-025P","OBJECT_TYPE":"PAYLOAD","MEAN_ANOMALY":"289.6260","MEAN_MOTION":"15.06393759","CENTER_NAME":"EARTH","APOAPSIS":"548.515","SEMIMAJOR_AXIS":"6925.368","SITE":"AFETR","EPHEMERIS_TYPE":"0","COUNTRY_CODE":"US","PERIAPSIS":"545.950"},{"DECAY_DATE":null,"REV_AT_EPOCH":"8861","MEAN_MOTION_DOT":"0.00000074","TLE_LINE1":"1 45545U 20025Q   21329.59245907  .00000074  00000-0  23851-4 0  9994","MEAN_MOTION_DDOT":"0.0000000000000","TLE_LINE2":"2 45545  53.0541 292.6250 0002153  57.8472 302.2725 15.06404025 88614","RCS_SIZE":"LARGE","ELEMENT_SET_NO":"999","RA_OF_ASC_NODE":"292.6250","ECCENTRICITY":"0.00021530","REF_FRAME":"TEME","OBJECT_NAME":"STARLINK-1374","FILE":"3223989","BSTAR":"0.00002385100000","ARG_OF_PERICENTER":"57.8472","OBJECT_TYPE":"PAYLOAD","OBJECT_ID":"2020-025Q","MEAN_MOTION":"15.06404025","MEAN_ANOMALY":"302.2725","CENTER_NAME":"EARTH","TIME_SYSTEM":"UTC","NORAD_CAT_ID":"45545","EPOCH":"2021-11-25T14:13:08.463648","MEAN_ELEMENT_THEORY":"SGP4","LAUNCH_DATE":"2020-04-22","CLASSIFICATION_TYPE":"U","PERIOD":"95.592","GP_ID":"190468403","INCLINATION":"53.0541","EPHEMERIS_TYPE":"0","COUNTRY_CODE":"US","PERIAPSIS":"545.710","SITE":"AFETR","SEMIMAJOR_AXIS":"6925.336","APOAPSIS":"548.692"},{"OBJECT_TYPE":"PAYLOAD","OBJECT_ID":"2020-025R","MEAN_MOTION":"15.06403824","MEAN_ANOMALY":"297.4527","CENTER_NAME":"EARTH","TIME_SYSTEM":"UTC","NORAD_CAT_ID":"45546","EPOCH":"2021-11-25T14:29:04.685280","LAUNCH_DATE":"2020-04-22","MEAN_ELEMENT_THEORY":"SGP4","CLASSIFICATION_TYPE":"U","PERIOD":"95.592","GP_ID":"190490700","INCLINATION":"53.0545","EPHEMERIS_TYPE":"0","COUNTRY_CODE":"US","PERIAPSIS":"545.810","SITE":"AFETR","SEMIMAJOR_AXIS":"6925.337","APOAPSIS":"548.594","DECAY_DATE":null,"MEAN_MOTION_DOT":"-0.00000024","REV_AT_EPOCH":"8919","TLE_LINE1":"1 45546U 20025R   21329.60352645 -.00000024  00000-0  17317-4 0  9991","MEAN_MOTION_DDOT":"0.0000000000000","TLE_LINE2":"2 45546  53.0545 292.5638 0002010  62.6667 297.4527 15.06403824 89195","RCS_SIZE":"LARGE","RA_OF_ASC_NODE":"292.5638","ELEMENT_SET_NO":"999","ECCENTRICITY":"0.00020100","REF_FRAME":"TEME","OBJECT_NAME":"STARLINK-1375","FILE":"3224126","BSTAR":"0.00001731700000","ARG_OF_PERICENTER":"62.6667"},{"MEAN_MOTION_DDOT":"0.0000000000000","RCS_SIZE":"LARGE","RA_OF_ASC_NODE":"292.5775","ELEMENT_SET_NO":"999","TLE_LINE2":"2 45547  53.0538 292.5775 0001853  53.6816 306.4343 15.06387846 89204","TLE_LINE1":"1 45547U 20025S   21329.59984520 -.00000240  00000-0  28035-5 0  9993","MEAN_MOTION_DOT":"-0.00000240","REV_AT_EPOCH":"8920","DECAY_DATE":null,"ARG_OF_PERICENTER":"53.6816","FILE":"3224126","BSTAR":"0.00000280350000","REF_FRAME":"TEME","OBJECT_NAME":"STARLINK-1377","ECCENTRICITY":"0.00018530","CLASSIFICATION_TYPE":"U","INCLINATION":"53.0538","GP_ID":"190491950","PERIOD":"95.593","NORAD_CAT_ID":"45547","TIME_SYSTEM":"UTC","MEAN_ELEMENT_THEORY":"SGP4","LAUNCH_DATE":"2020-04-22","EPOCH":"2021-11-25T14:23:46.625280","MEAN_ANOMALY":"306.4343","MEAN_MOTION":"15.06387846","CENTER_NAME":"EARTH","OBJECT_ID":"2020-025S","OBJECT_TYPE":"PAYLOAD","APOAPSIS":"548.534","SEMIMAJOR_AXIS":"6925.386","SITE":"AFETR","PERIAPSIS":"545.968","EPHEMERIS_TYPE":"0","COUNTRY_CODE":"US"},{"DECAY_DATE":null,"MEAN_MOTION_DOT":"-0.00000029","REV_AT_EPOCH":"8919","TLE_LINE1":"1 45548U 20025T   21329.62563711 -.00000029  00000-0  16970-4 0  9992","MEAN_MOTION_DDOT":"0.0000000000000","TLE_LINE2":"2 45548  53.0552 292.4709 0001682  66.0482 294.0683 15.06397653 89198","RA_OF_ASC_NODE":"292.4709","RCS_SIZE":"LARGE","ELEMENT_SET_NO":"999","ECCENTRICITY":"0.00016820","REF_FRAME":"TEME","OBJECT_NAME":"STARLINK-1378","FILE":"3224126","BSTAR":"0.00001697000000","ARG_OF_PERICENTER":"66.0482","OBJECT_TYPE":"PAYLOAD","OBJECT_ID":"2020-025T","MEAN_MOTION":"15.06397653","MEAN_ANOMALY":"294.0683","CENTER_NAME":"EARTH","TIME_SYSTEM":"UTC","NORAD_CAT_ID":"45548","EPOCH":"2021-11-25T15:00:55.046304","LAUNCH_DATE":"2020-04-22","MEAN_ELEMENT_THEORY":"SGP4","CLASSIFICATION_TYPE":"U","GP_ID":"190492201","PERIOD":"95.592","INCLINATION":"53.0552","EPHEMERIS_TYPE":"0","COUNTRY_CODE":"US","PERIAPSIS":"546.056","SEMIMAJOR_AXIS":"6925.356","SITE":"AFETR","APOAPSIS":"548.386"},{"APOAPSIS":"441.292","SEMIMAJOR_AXIS":"6818.410","SITE":"AFETR","PERIAPSIS":"439.258","COUNTRY_CODE":"US","EPHEMERIS_TYPE":"0","INCLINATION":"53.0519","GP_ID":"190467573","PERIOD":"93.387","CLASSIFICATION_TYPE":"U","LAUNCH_DATE":"2020-04-22","MEAN_ELEMENT_THEORY":"SGP4","EPOCH":"2021-11-25T12:09:28.725408","NORAD_CAT_ID":"45549","TIME_SYSTEM":"UTC","CENTER_NAME":"EARTH","MEAN_ANOMALY":"300.8582","MEAN_MOTION":"15.41977748","OBJECT_ID":"2020-025U","OBJECT_TYPE":"PAYLOAD","ARG_OF_PERICENTER":"59.2570","BSTAR":"0.01567700000000","FILE":"3223940","OBJECT_NAME":"STARLINK-1379","REF_FRAME":"TEME","ECCENTRICITY":"0.00014920","ELEMENT_SET_NO":"999","RCS_SIZE":"LARGE","RA_OF_ASC_NODE":"290.9996","TLE_LINE2":"2 45549  53.0519 290.9996 0001492  59.2570 300.8582 15.41977748 88612","MEAN_MOTION_DDOT":"0.0000000000000","TLE_LINE1":"1 45549U 20025U   21329.50658247  .00735964  00000-0  15677-1 0  9991","MEAN_MOTION_DOT":"0.00735964","REV_AT_EPOCH":"8861","DECAY_DATE":null},{"APOAPSIS":"548.492","SITE":"AFETR","SEMIMAJOR_AXIS":"6925.363","PERIAPSIS":"545.963","EPHEMERIS_TYPE":"0","COUNTRY_CODE":"US","CLASSIFICATION_TYPE":"U","INCLINATION":"53.0543","GP_ID":"190491199","PERIOD":"95.592","NORAD_CAT_ID":"45550","TIME_SYSTEM":"UTC","MEAN_ELEMENT_THEORY":"SGP4","LAUNCH_DATE":"2020-04-22","EPOCH":"2021-11-25T15:26:05.572320","MEAN_ANOMALY":"299.8376","MEAN_MOTION":"15.06395348","CENTER_NAME":"EARTH","OBJECT_TYPE":"PAYLOAD","OBJECT_ID":"2020-025V","ARG_OF_PERICENTER":"60.2794","FILE":"3224126","BSTAR":"0.00000686770000","REF_FRAME":"TEME","OBJECT_NAME":"STARLINK-1390","ECCENTRICITY":"0.00018260","MEAN_MOTION_DDOT":"0.0000000000000","RA_OF_ASC_NODE":"292.3940","RCS_SIZE":"LARGE","ELEMENT_SET_NO":"999","TLE_LINE2":"2 45550  53.0543 292.3940 0001826  60.2794 299.8376 15.06395348 89190","TLE_LINE1":"1 45550U 20025V   21329.64312005 -.00000179  00000-0  68677-5 0  9993","REV_AT_EPOCH":"8919","MEAN_MOTION_DOT":"-0.00000179","DECAY_DATE":null}];
